API VERSION: 1.0
API SOURCE: NASA/JPL Horizons API

*******************************************************************************
JPL/HORIZONS                     (2016 NJ33)               2024-Jun-26 09:22:56
Rec #:50376177 (+COV) Soln.date: 2022-Dec-20_14:41:05     # obs: 90 (2016-2022)
 
IAU76/J2000 helio. ecliptic osc. elements (au, days, deg., period=Julian yrs):
 
  EPOCH=  2458731.5 ! 2019-Sep-05.00 (TDB)         Residual RMS= .329
   EC= .2084519986586554   QR= 1.038296452588833   TP= 2458691.8319451208
   OM= 279.6817391224282   W=  24.07032646782658   IN= 6.640499343268522
   A= 1.311728980212637    MA= 26.0242851514309    ADIST= 1.585161507836441
   PER= 1.50236            N= .656051456           ANGMOM= .019268896
   DAN= 1.05411            DDN= 1.54968            L= 303.6087651
   B= 2.703322             MOID= .0324998          TP= 2019-Jul-27.3319451208
 
Asteroid physical parameters (km, seconds, rotational period in hours):
   GM= n.a.                RAD= n.a.               ROTPER= n.a.
   H= 25.53                G= .150                 B-V= n.a.
                           ALBEDO= n.a.            STYP= n.a.

Asteroid non-gravitational force model (AMRAT= m^2/kg;A1,A2,A3=au/d^2;R0=au):
   AMRAT=  0.
   A1= 9.475402534008E-10  A2= -5.486101144925E-13 A3= 8.484934456646E-11
 Non-standard or simulated/proxy model:
   ALN=  1.            NK=  0.       NM=  2.       NN=  0.       R0=  1.

ASTEROID comments: 
1: soln ref.= JPL#25, OCC=3           radar( 0 delay, 1 Dop.)
2: source=ORB; Nongravitational accels. using nonstandard g(r) = (1 au/ r)^2
*******************************************************************************


*******************************************************************************
Ephemeris / WWW_USER Wed Jun 26 09:22:56 2024 Pasadena, USA      / Horizons
*******************************************************************************
Target body name: (2016 NJ33)                     {source: JPL#25}
Center body name: Sun (10)                        {source: DE441}
Center-site name: BODY CENTER
*******************************************************************************
Start time      : A.D. 2024-Jan-01 00:00:00.0000 TDB
Stop  time      : A.D. 2044-Jan-01 00:00:00.0000 TDB
Step-size       : 1440 minutes
*******************************************************************************
Center geodetic : 0.0, 0.0, 0.0                   {E-lon(deg),Lat(deg),Alt(km)}
Center cylindric: 0.0, 0.0, 0.0                   {E-lon(deg),Dxy(km),Dz(km)}
Center radii    : 695700.0, 695700.0, 695700.0 km {Equator_a, b, pole_c}
Small perturbers: Yes                             {source: SB441-N16}
Output units    : KM-S
Calendar mode   : Mixed Julian/Gregorian
Output type     : GEOMETRIC cartesian states
Output format   : 3 (position, velocity, LT, range, range-rate)
Reference frame : Ecliptic of J2000.0
*******************************************************************************
Initial IAU76/J2000 heliocentric ecliptic osculating elements (au, days, deg.):
  EPOCH=  2458731.5 ! 2019-Sep-05.00 (TDB)         Residual RMS= .329          
   EC= .2084519986586554   QR= 1.038296452588833   TP= 2458691.8319451208      
   OM= 279.6817391224282   W=  24.07032646782658   IN= 6.640499343268522       
  Equivalent ICRF heliocentric cartesian coordinates (au, au/d):
   X= 1.028834220437436E+00  Y=-3.308552725124160E-01  Z=-2.141238712956597E-02
  VX= 7.015255185184669E-03 VY= 1.466724972741801E-02 VZ= 7.588108097369627E-03
Asteroid physical parameters (km, seconds, rotational period in hours):        
   GM= n.a.                RAD= n.a.               ROTPER= n.a.                
   H= 25.53                G= .150                 B-V= n.a.                   
                           ALBEDO= n.a.            STYP= n.a.                  
Asteroid non-gravitational force model (AMRAT= m^2/kg;A1,A2,A3=au/d^2;R0=au):  
   AMRAT=  0.                                                                  
   A1= 9.475402534008E-10  A2= -5.486101144925E-13 A3= 8.484934456646E-11      
 Non-standard or simulated/proxy model:                                        
   ALN=  1.            NK=  0.       NM=  2.       NN=  0.       R0=  1.       
*******************************************************************************
JDTDB
   X     Y     Z
   VX    VY    VZ
   LT    RG    RR
*******************************************************************************
$$SOE
2463964.500000000 = A.D. 2034-Jan-02 00:00:00.0000 TDB 
 X =-1.893411659422174E+08 Y = 1.366289591183970E+08 Z =-1.909543866227534E+07
 VX=-1.074529278077650E+01 VY=-1.845614920530546E+01 VZ=-1.578255465610734E+00
 LT= 7.814388435819646E+02 RG= 2.342694716941147E+08 RR=-1.950662662148783E+00
2463965.500000000 = A.D. 2034-Jan-03 00:00:00.0000 TDB 
 X =-1.902622476916118E+08 Y = 1.350291008308423E+08 Z =-1.923106193580591E+07
 VX=-1.057584534070748E+01 VY=-1.857741349113001E+01 VZ=-1.561145758260937E+00
 LT= 7.808707306596905E+02 RG= 2.340991557247246E+08 RR=-1.991826247714209E+00
2463966.500000000 = A.D. 2034-Jan-04 00:00:00.0000 TDB 
 X =-1.911686376967445E+08 Y = 1.334188157178313E+08 Z =-1.936520008525459E+07
 VX=-1.040520622161603E+01 VY=-1.869750934474007E+01 VZ=-1.543877576884021E+00
 LT= 7.802907634755334E+02 RG= 2.339252859370268E+08 RR=-2.032926689476402E+00
2463967.500000000 = A.D. 2034-Jan-05 00:00:00.0000 TDB 
 X =-1.920602330258632E+08 Y = 1.317982051387072E+08 Z =-1.949783941414349E+07
 VX=-1.023337610077309E+01 VY=-1.881642732389090E+01 VZ=-1.526450820801474E+00
 LT= 7.796989604754443E+02 RG= 2.337478678609783E+08 RR=-2.073962262478131E+00
2463968.500000000 = A.D. 2034-Jan-06 00:00:00.0000 TDB 
 X =-1.929369308054204E+08 Y = 1.301673712752874E+08 Z =-1.962896621713507E+07
 VX=-1.006035564860887E+01 VY=-1.893415783168182E+01 VZ=-1.508865385643992E+00
 LT= 7.790953406062551E+02 RG= 2.335669071766964E+08 RR=-2.114931215632943E+00
2463969.500000000 = A.D. 2034-Jan-07 00:00:00.0000 TDB 
 X =-1.937986282195801E+08 Y = 1.285264171453285E+08 Z =-1.975856677972275E+07
 VX=-9.886145530996520E+00 VY=-1.905069111415998E+01 VZ=-1.491121163572278E+00
 LT= 7.784799233233057E+02 RG= 2.333824097167453E+08 RR=-2.155831771051725E+00
2463970.500000000 = A.D. 2034-Jan-08 00:00:00.0000 TDB 
 X =-1.946452225099245E+08 Y = 1.268754466162006E+08 Z =-1.988662737794093E+07
 VX=-9.710746411581891E+00 VY=-1.916601725790495E+01 VZ=-1.473218043503815E+00
 LT= 7.778527285982661E+02 RG= 2.331943814684811E+08 RR=-2.196662123363839E+00
2463971.500000000 = A.D. 2034-Jan-09 00:00:00.0000 TDB 
 X =-1.954766109753643E+08 Y = 1.252145644187696E+08 Z =-2.001313427809470E+07
 VX=-9.534158954159736E+00 VY=-1.928012618759421E+01 VZ=-1.455155911345971E+00
 LT= 7.772137769271555E+02 RG= 2.330028285764556E+08 RR=-2.237420439033681E+00
2463972.500000000 = A.D. 2034-Jan-10 00:00:00.0000 TDB 
 X =-1.962926909722553E+08 Y = 1.235438761614918E+08 Z =-2.013807373651011E+07
 VX=-9.356383825097208E+00 VY=-1.939300766354804E+01 VZ=-1.436934650235576E+00
 LT= 7.765630893385577E+02 RG= 2.328077573448798E+08 RR=-2.278104855672669E+00
2463973.500000000 = A.D. 2034-Jan-11 00:00:00.0000 TDB 
 X =-1.970933599147273E+08 Y = 1.218634883447211E+08 Z =-2.026143199930540E+07
 VX=-9.177421695804700E+00 VY=-1.950465127925333E+01 VZ=-1.418554140785310E+00
 LT= 7.759006874020365E+02 RG= 2.326091742401462E+08 RR=-2.318713481347861E+00
2463974.500000000 = A.D. 2034-Jan-12 00:00:00.0000 TDB 
 X =-1.978785152752284E+08 Y = 1.201735083752313E+08 Z =-2.038319530218380E+07
 VX=-8.997273245254990E+00 VY=-1.961504645886433E+01 VZ=-1.400014261337011E+00
 LT= 7.752265932367503E+02 RG= 2.324070858934115E+08 RR=-2.359244393886875E+00
2463975.500000000 = A.D. 2034-Jan-13 00:00:00.0000 TDB 
 X =-1.986480545852890E+08 Y = 1.184740445809553E+08 Z =-2.050334987024852E+07
 VX=-8.815939162550171E+00 VY=-1.972418245467842E+01 VZ=-1.381314888222219E+00
 LT= 7.745408295202675E+02 RG= 2.322014991032400E+08 RR=-2.399695640180449E+00
2463976.500000000 = A.D. 2034-Jan-14 00:00:00.0000 TDB 
 X =-1.994018754365094E+08 Y = 1.167652062259432E+08 Z =-2.062188191784058E+07
 VX=-8.633420149538631E+00 VY=-1.983204834458370E+01 VZ=-1.362455896029793E+00
 LT= 7.738434194975843E+02 RG= 2.319924208383059E+08 RR=-2.440065235481076E+00
2463977.500000000 = A.D. 2034-Jan-15 00:00:00.0000 TDB 
 X =-2.001398754817762E+08 Y = 1.150471035255432E+08 Z =-2.073877764840006E+07
 VX=-8.449716923481191E+00 VY=-1.993863302947475E+01 VZ=-1.343437157880906E+00
 LT= 7.731343869903424E+02 RG= 2.317798582401579E+08 RR=-2.480351162698731E+00
2463978.500000000 = A.D. 2034-Jan-16 00:00:00.0000 TDB 
 X =-2.008619524367106E+08 Y = 1.133198476618065E+08 Z =-2.085402325435145E+07
 VX=-8.264830219770438E+00 VY=-2.004392523063199E+01 VZ=-1.324258545710952E+00
 LT= 7.724137564062538E+02 RG= 2.315638186260441E+08 RR=-2.520551371690686E+00
2463979.500000000 = A.D. 2034-Jan-17 00:00:00.0000 TDB 
 X =-2.015680040813548E+08 Y = 1.115835507991206E+08 Z =-2.096760491701359E+07
 VX=-8.078760794705214E+00 VY=-2.014791348705831E+01 VZ=-1.304919930558175E+00
 LT= 7.716815527487295E+02 RG= 2.313443094917983E+08 RR=-2.560663778543253E+00
2463980.500000000 = A.D. 2034-Jan-18 00:00:00.0000 TDB 
 X =-2.022579282621002E+08 Y = 1.098383261000752E+08 Z =-2.107950880653485E+07
 VX=-7.891509428325634E+00 VY=-2.025058615276785E+01 VZ=-1.285421182858479E+00
 LT= 7.709378016267171E+02 RG= 2.311213385147899E+08 RR=-2.600686264841674E+00
2463981.500000000 = A.D. 2034-Jan-19 00:00:00.0000 TDB 
 X =-2.029316228938636E+08 Y = 1.080842877415638E+08 Z =-2.118972108185402E+07
 VX=-7.703076927316652E+00 VY=-2.035193139401744E+01 VZ=-1.265762172745339E+00
 LT= 7.701825292647510E+02 RG= 2.308949135569366E+08 RR=-2.640616676920077E+00
